[{"OBJECT_NAME":"STARLINK-31005","OBJECT_ID":"2023-186P","EPOCH":"2026-03-09T22:00:01.999584","MEAN_MOTION":15.27555583,"ECCENTRICITY":0.00014005,"INCLINATION":43.0009,"RA_OF_ASC_NODE":62.4695,"ARG_OF_PERICENTER":258.7988,"MEAN_ANOMALY":317.6431,"EPHEMERIS_TYPE":0,"CLASSIFICATION_TYPE":"U","NORAD_CAT_ID":58486,"ELEMENT_SET_NO":999,"REV_AT_EPOCH":578,"BSTAR":0.0014984727,"MEAN_MOTION_DOT":0.00041172,"MEAN_MOTION_DDOT":0},{"OBJECT_NAME":"COSMOS 2588","OBJECT_ID":"2025-109A","EPOCH":"2026-03-09T19:28:59.107008","MEAN_MOTION":15.29122656,"ECCENTRICITY":0.0005019,"INCLINATION":72.9704,"RA_OF_ASC_NODE":73.5401,"ARG_OF_PERICENTER":308.678,"MEAN_ANOMALY":51.3966,"EPHEMERIS_TYPE":0,"CLASSIFICATION_TYPE":"U","NORAD_CAT_ID":64095,"ELEMENT_SET_NO":999,"REV_AT_EPOCH":4442,"BSTAR":0.00032611,"MEAN_MOTION_DOT":9.169e-5,"MEAN_MOTION_DDOT":0}]
